ONEWEB-0656             
1 55817U 23029X   24177.69640236 -.00000058  00000+0 -17499-3 0  9996
2 55817  87.9211  57.9570 0001224  93.2191 266.9083 13.20769682 65912
ONEWEB-0657             
1 55818U 23029Y   24177.82783041 -.00000010  00000+0 -57344-4 0  9996
2 55818  87.9157  88.5280 0001157  62.2952 297.8298 13.19726440 63761
ONEWEB-0658             
1 55819U 23029Z   24177.82309867 -.00000021  00000+0 -84380-4 0  9999
2 55819  87.9157  88.4644 0002415  65.2355 294.9029 13.19727256 63770
ONEWEB-0660             
1 55820U 23029AA  24177.75840515 -.00001558  00000+0 -42369-2 0  9998
2 55820  87.8961  73.2073 0002415  77.1769 282.9631 13.14510567 64624
ONEWEB-0661             
1 55821U 23029AB  24177.71718869  .00000126  00000+0  30473-3 0  9993
2 55821  87.8967  73.2826 0002379  82.2179 277.9221 13.14503726 64604
ONEWEB-0662             
1 55822U 23029AC  24177.75209250  .00006706  00000+0  18047-1 0  9998
2 55822  87.8961  73.2825 0002307  71.7783 288.3598 13.14475175 64657
ONEWEB-0663             
1 55823U 23029AD  24177.68930832  .00000138  00000+0  30660-3 0  9998
2 55823  87.9211  58.0193 0002323  78.0821 282.0573 13.20789949 65904
ONEWEB-0664             
1 55824U 23029AE  24177.68379294  .00000080  00000+0  16510-3 0  9992
2 55824  87.9210  58.0338 0002150  90.9945 269.1435 13.20772777 65907
